ONEWEB-0461             
1 51649U 22012AD  24350.81806301  .00000036  00000+0  58758-4 0  9998
2 51649  87.9097 115.1001 0001637 103.7914 256.3400 13.17652109141672
ONEWEB-0463             
1 51650U 22012AE  24350.11607620  .00000056  00000+0  10987-3 0  9999
2 51650  87.9101 115.2945 0001669  99.3751 260.7569 13.17647256142664
ONEWEB-0464             
1 51651U 22012AF  24350.40427015 -.00000578  00000+0 -16926-2 0  9999
2 51651  87.8902 145.5822 0001124  88.7096 271.4160 13.10375008138750
ONEWEB-0468             
1 51652U 22012AG  24350.71634534 -.00000064  00000+0 -21866-3 0  9990
2 51652  87.8902 145.5125 0001390  94.3155 265.8131 13.10377989137474
ONEWEB-0473             
1 51653U 22012AH  24349.70875749 -.00000722  00000+0 -21052-2 0  9990
2 51653  87.8900 145.7156 0001451  89.4345 270.6949 13.10374816138640
ONEWEB-0474             
1 51654U 22012AJ  24350.84582161 -.00000593  00000+0 -17342-2 0  9994
2 51654  87.8885 145.4705 0001281  86.6033 273.5241 13.10370910137483
ONEWEB-0475             
1 51655U 22012AK  24350.05196724  .00000030  00000+0  42812-4 0  9990
2 51655  87.9101 115.2869 0001617  70.4509 289.6797 13.17650266142666
ONEWEB-0490             
1 54113U 22138A   24350.90334617  .00000090  00000+0  19129-3 0  9990
2 54113  87.9173  53.9801 0001623  99.4562 260.6754 13.19728539104513
